C/2011 L3 (McNaught),e,87.1847,307.7423,27.6211,949.0464,0.0000337,0.99797319,0.0000,08/08.4389/2011,2000,g 12.5,4.0
# From MPC 94278
C/2011 L4 (PANSTARRS),e,83.9883,65.9051,333.6605,36895,0.0000001,0.99999180,0.0000,03/09.8180/2013,2000,g  5.5,4.0
# From MPC 82718
C/2011 L6 (Boattini),e,171.4423,214.4241,331.3695,8190,0.0000013,0.99917101,0.0000,01/17.7469/2011,2000,g  9.0,4.0
# From MPC 75714
C/2011 M1 (LINEAR),h,09/06.3309/2011,70.1574,324.7620,119.7803,1.002460,0.905614,2000,12.0,4.0
# From MPC 87913
P/2011 N1 (ASH),e,35.6906,77.6371,330.6011,6.259084,0.0629416,0.54376964,102.0803,11/04.0/2016,2000,g 11.5,4.0
# From MPC 75714
P/2011 NO1 (Elenin),e,15.2511,296.0074,263.6231,5.519681,0.0760034,0.77617396,160.5187,11/04.0/2016,2000,g 15.0,4.0
# From MPC 76569
C/2011 N2 (McNaught),e,33.7172,273.9091,356.9434,1318,0.0000206,0.99806314,0.0000,10/19.1447/2011,2000,g 11.5,4.0
# From MPC 87476
C/2011 O1 (LINEAR),e,76.5603,89.7876,232.3363,698.6488,0.0000534,0.99443241,0.0000,08/17.7235/2012,2000,g  7.0,4.0
# From MPC 78186
P/2011 P1 (McNaught),e,5.6452,4.3027,349.1152,7.492125,0.0480614,0.32401184,110.8766,11/04.0/2016,2000,g  9.0,4.0
# From MPC 84931
C/2011 P2 (PANSTARRS),e,9.0060,203.9840,75.8805,9.712033,0.0325641,0.36914564,73.2210,11/04.0/2016,2000,g  8.5,4.0
# From MPC 79867
C/2011 Q1 (PANSTARRS),e,94.8938,142.2237,135.8095,3881,0.0000041,0.99825635,0.0000,06/29.1341/2011,2000,g  9.5,4.0
# From MPC 79342
C/2011 Q2 (McNaught),e,37.2159,287.1234,34.8403,833.3362,0.0000410,0.99837582,0.0000,01/17.8665/2012,2000,g 10.0,4.0
# From MPC 77806
P/2011 Q3 (McNaught),e,6.0523,32.0370,311.0777,4.968722,0.0889891,0.53186372,171.4637,11/04.0/2016,2000,g 13.5,4.0
# From MPC 79342
C/2011 Q4 (SWAN),e,147.9065,252.0289,1.8684,41.17863,0.0037299,0.97280455,0.0000,09/18.7598/2011,2000,g 12.5,4.0
# From MPC 88325
C/2011 R1 (McNaught),e,116.1625,221.3210,308.8003,11702,0.0000008,0.99982206,0.0000,10/18.6591/2012,2000,g  6.5,4.0
# From MPC 90269
P/2011 R3 (Novichonok-Gerke),e,19.2571,190.3933,224.0644,4.811852,0.0933761,0.26392745,157.3025,11/04.0/2016,2000,g 11.0,4.0
# From MPC 98558
P/2011 S1 (Gibbs),e,2.6825,218.9289,193.5009,8.623722,0.0389190,0.20069362,31.1540,11/04.0/2016,2000,g  8.0,4.0
# From MPC 80897
C/2011 S2 (Kowalski),e,17.5623,288.0532,192.3296,16.44453,0.0147799,0.93183553,27.1357,11/04.0/2016,2000,g 15.5,4.0
# From MPC 78186
P/2011 U1 (PANSTARRS),e,15.2406,134.9813,353.3728,4.053527,0.1207687,0.41731644,192.8836,11/04.0/2016,2000,g 14.5,4.0
# From MPC 93583
P/2011 U2 (Bressi),e,9.7242,264.9638,139.9176,5.170547,0.0838300,0.08887753,153.8808,11/04.0/2016,2000,g 10.0,4.0
# From MPC 78186
C/2011 U3 (PANSTARRS),e,116.7157,228.1963,287.7039,2345,0.0000087,0.99954307,0.0000,06/03.0540/2012,2000,g 14.0,4.0
# From MPC 79022
P/2011 UA134 (Spacewatch-PANSTARRS),e,10.4949,40.6240,32.5687,5.595330,0.0744673,0.63037754,133.7655,11/04.0/2016,2000,g 17.5,4.0
# From MPC 88325
C/2011 UF305 (LINEAR),e,94.0162,297.5221,122.0211,3543,0.0000047,0.99939514,0.0000,07/21.2199/2012,2000,g  9.0,4.0
# From MPC 77406
P/2011 V1 (Boattini),e,7.3555,47.0824,269.2837,3.847265,0.1306098,0.55435857,269.1951,11/04.0/2016,2000,g 15.5,4.0
# From MPC 79022
P/2011 VJ5 (Lemmon),e,3.9754,169.9196,315.2754,3.404410,0.1569066,0.55718773,281.0705,11/04.0/2016,2000,g 17.5,4.0
# From MPC 82718
P/2011 W1 (PANSTARRS),e,3.7172,161.8210,282.8017,4.657867,0.0980445,0.28631459,171.4109,11/04.0/2016,2000,g 11.5,4.0
# From MPC 80897
P/2011 W2 (Rinner),e,13.7583,231.9756,221.2972,3.805918,0.1327440,0.39282579,242.3059,11/04.0/2016,2000,g 13.0,4.0
# From MPC 77807
C/2011 W3 (Lovejoy),e,134.9823,327.5357,54.4337,71.03776,0.0016462,0.99991398,0.0000,12/14.7950/2011,2000,g 14.5,4.0
# From MPC 79342
P/2011 Y2 (Boattini),e,6.3618,309.5297,131.9264,6.238576,0.0632522,0.71085621,106.9168,11/04.0/2016,2000,g 15.0,4.0
# From MPC 79342
C/2011 Y3 (Boattini),e,26.5152,84.8519,340.6651,11.78463,0.0243630,0.70230761,46.3612,11/04.0/2016,2000,g  8.0,4.0
# From MPC 93583
C/2012 A1 (PANSTARRS),h,12/04.3965/2013,120.9274,278.0042,192.0872,1.002159,7.605077,2000,6.0,4.0
# From MPC 91611
C/2012 A2 (LINEAR),e,125.9034,191.4251,101.7230,1231,0.0000228,0.99712713,0.0000,11/05.9186/2012,2000,g  8.5,4.0
# From MPC 80898
P/2012 A3 (SOHO),e,11.4575,176.4033,217.7580,2.571602,0.2390003,0.77551831,57.2361,11/04.0/2016,2000,g 17.0,4.0
# From MPC 94669
P/2012 B1 (PANSTARRS),e,7.6232,36.1561,162.3862,6.511145,0.0593223,0.41206993,71.1078,11/04.0/2016,2000,g  9.0,4.0
# From MPC 82719
C/2012 B3 (La Sagra),e,107.0146,252.9763,50.7747,4683,0.0000031,0.99924336,0.0000,12/05.9136/2011,2000,g 10.0,4.0
# From MPC 83519
C/2012 BJ98 (Lemmon),e,2.6367,124.0167,73.0264,17.22746,0.0137839,0.87478621,20.7431,11/04.0/2016,2000,g 12.5,4.0
# From MPC 89309
C/2012 C1 (McNaught),e,96.2466,300.6276,279.8867,2752,0.0000068,0.99824283,0.0000,02/04.9827/2013,2000,g  7.5,4.0
# From MPC 80898
C/2012 C2 (Bruenjes),h,03/13.2023/2012,162.7882,117.9839,62.5839,1.002869,0.797160,2000,17.0,4.0
# From MPC 78590
P/2012 C3 (PANSTARRS),e,9.0920,135.3677,344.9542,9.748681,0.0323806,0.63011148,359.9758,10/06.0/2011,2000,g 13.0,4.0
# From MPC 84022
C/2012 CH17 (MOSS),e,27.7517,125.9011,137.9137,2473,0.0000080,0.99947870,0.0000,09/28.8119/2012,2000,g 11.0,4.0
# From MPC 84022
C/2012 E1 (Hill),e,122.5700,286.2969,48.7917,1086,0.0000275,0.99309221,0.0000,06/30.8239/2011,2000,g  6.5,4.0
# From MPC 79023
C/2012 E2 (SWAN),p,03/15.0314/2012,144.2218,83.3435,0.006952,7.7078,2000,10.0,4.0
# From MPC 82318
C/2012 E3 (PANSTARRS),e,105.5694,5.4995,103.4933,207.1493,0.0003306,0.98149297,0.0000,05/10.7440/2011,2000,g 10.0,4.0
# From MPC 79868
C/2012 F1 (Gibbs),e,159.5578,130.3328,300.8884,72.23341,0.0016055,0.96451358,2.7635,11/04.0/2016,2000,g 14.0,4.0
# From MPC 84931
P/2012 F2 (PANSTARRS),e,14.7380,227.0902,33.0960,6.322628,0.0619951,0.54270355,80.8250,11/04.0/2016,2000,g 12.0,4.0
# From MPEC 2016-U66
C/2012 F3 (PANSTARRS),h,04/06.7818/2015,11.3547,164.6115,104.0273,1.002663,3.456839,2000,6.5,4.0
# From MPC 90766
C/2012 F6 (Lemmon),e,82.6177,332.6982,304.8543,413.8298,0.0001171,0.99824456,0.0000,03/24.6933/2013,2000,g 10.0,4.0
# From MPC 79344
P/2012 G1 (PANSTARRS),e,11.6925,282.5440,286.1149,4.172871,0.1156250,0.38072240,359.9500,06/01.0/2012,2000,g 15.0,4.0
# From MPC 80046
C/2012 H2 (McNaught),e,92.7931,184.0610,295.9698,16.10408,0.0152511,0.89294553,25.1111,11/04.0/2016,2000,g 15.5,4.0
# From MPC 89726
C/2012 J1 (Catalina),h,12/06.3627/2012,34.0934,235.1207,147.3789,1.001419,3.161286,2000,8.0,4.0
# From MPC101094
C/2012 K1 (PANSTARRS),h,08/27.8119/2014,142.4086,317.7525,203.1295,1.000464,1.054392,2000,5.6,3.2
# From MPC 80898
P/2012 K3 (Gibbs),e,13.1979,125.8757,172.3111,3.619957,0.1431031,0.42395115,214.4304,11/04.0/2016,2000,g 15.0,4.0
# From MPC 88326
C/2012 K5 (LINEAR),e,92.8247,279.1813,139.3564,686.8823,0.0000547,0.99833267,0.0000,11/28.3486/2012,2000,g 12.0,4.0
# From MPC 94278
C/2012 K6 (McNaught),e,135.2205,206.9060,338.8794,1457,0.0000177,0.99769550,0.0000,05/20.7597/2013,2000,g  8.5,4.0
# From MPC100577
C/2012 K8 (Lemmon),e,106.1167,312.7989,75.8826,22111,0.0000003,0.99970762,0.0000,08/19.4523/2014,2000,g  6.0,4.0
# From MPC 88326
C/2012 L1 (LINEAR),e,87.2368,271.8521,140.2349,605.8760,0.0000661,0.99626402,0.0000,12/24.8336/2012,2000,g 10.5,4.0
# From MPC 88326
C/2012 L2 (LINEAR),e,70.9228,270.3304,205.8661,622.7047,0.0000634,0.99757000,0.0000,05/09.0263/2013,2000,g 10.0,4.0
# From MPC 84023
C/2012 L3 (LINEAR),e,134.1401,53.4368,106.9208,296.4665,0.0001931,0.98974260,0.0000,06/10.9891/2012,2000,g 13.0,4.0
# From MPEC 2016-U66
C/2012 LP26 (Palomar),h,08/16.4728/2015,25.3776,153.9880,145.1388,1.000170,6.535751,2000,6.5,4.0
# From MPC 88326
P/2012 NJ (La Sagra),e,84.4075,315.7396,338.2843,8.456521,0.0400790,0.84765481,64.3553,11/04.0/2016,2000,g 14.5,4.0
# From MPC 84625
C/2012 OP (Siding Spring),e,114.8315,267.3067,351.3186,700.4882,0.0000532,0.99485214,0.0000,12/03.6996/2012,2000,g 13.5,2.0
# From MPC 81470
P/2012 O1 (McNaught),e,7.4329,92.6281,237.9083,3.528326,0.1487137,0.59834852,234.1044,11/04.0/2016,2000,g 17.5,4.0
# From MPC 80899
P/2012 O2 (McNaught),e,24.4987,120.7436,183.4463,3.616748,0.1432936,0.53307267,229.1164,11/04.0/2016,2000,g 17.0,4.0
# From MPC 82720
P/2012 O3 (McNaught),e,16.5778,336.4071,344.6716,4.580665,0.1005336,0.64541162,155.3181,11/04.0/2016,2000,g 16.5,4.0
# From MPC 90767
C/2012 Q1 (Kowalski),e,45.2313,184.4294,139.0291,25.99759,0.0074354,0.63567501,12.8951,11/04.0/2016,2000,g  4.0,4.0
# From MPC 89726
C/2012 S1 (ISON),h,11/28.4367/2013,62.5951,295.5885,345.6586,1.000260,0.012780,2000,8.5,3.2
# From MPC 82720
P/2012 S2 (La Sagra),e,8.6684,51.3387,312.6235,4.399514,0.1068063,0.69249516,164.8642,11/04.0/2016,2000,g 17.0,4.0
# From MPC 88327
C/2012 S3 (PANSTARRS),e,112.9493,121.2787,183.6651,5010,0.0000028,0.99953951,0.0000,08/30.4990/2013,2000,g 10.0,4.0
# From MPC 88327
C/2012 S4 (PANSTARRS),e,126.5601,173.1169,163.5302,37981,0.0000001,0.99988565,0.0000,06/27.6263/2013,2000,g  8.5,4.0
# From MPC 82720
P/2012 SB6 (Lemmon),e,11.0737,9.1221,12.1063,3.878581,0.1290312,0.39435383,188.2657,11/04.0/2016,2000,g 14.0,4.0
# From MPC 88694
P/2012 T1 (PANSTARRS),e,11.0575,85.7274,299.9625,3.149183,0.1763629,0.23737107,267.5958,11/04.0/2016,2000,g 15.0,4.0
# From MPC 82320
P/2012 T2 (PANSTARRS),e,12.5540,73.7413,310.9972,5.746568,0.0715470,0.16022774,92.1930,11/04.0/2016,2000,g 10.0,4.0
# From MPC 80900
P/2012 T3 (PANSTARRS),e,9.5478,114.3993,195.4618,6.161957,0.0644356,0.61499860,106.6366,11/04.0/2016,2000,g 15.0,4.0
# From MPC 84023
C/2012 T4 (McNaught),e,24.1232,99.4172,219.8197,119.0878,0.0007584,0.98361202,0.0000,10/10.5319/2012,2000,g 13.5,4.0
# From MPC 84023
C/2012 T5 (Bressi),h,02/24.1216/2013,72.2323,230.3038,318.1900,1.000386,0.323246,2000,13.0,4.0
# From MPC 82720
C/2012 T6 (Kowalski),e,33.3247,186.1261,197.9882,14.09252,0.0186304,0.87412889,28.5587,11/04.0/2016,2000,g 15.0,4.0
# From MPC 87914
P/2012 TK8 (Tenagra),e,6.2845,289.3362,126.6765,4.165619,0.1159271,0.26695768,148.3369,11/04.0/2016,2000,g 13.0,4.0
